STARLINK-1626           
1 46167U 20057BC  24156.49656161  .00001658  00000+0  13014-3 0  9995
2 46167  53.0576 324.0172 0001299  93.3994 266.7144 15.06412400209126
STARLINK-1627           
1 46168U 20057BD  24156.60806056  .00011486  00000+0  78793-3 0  9994
2 46168  53.0539 273.6101 0001427  94.5349 265.5803 15.06436657209834
STARLINK-1628           
1 46169U 20057BE  24156.44500611  .00003400  00000+0  24697-3 0  9996
2 46169  53.0569 324.6337 0001503  88.1934 271.9227 15.06407240209051
STARLINK-1633           
1 46171U 20057BG  24156.14087739  .00006729  00000+0  47014-3 0  9992
2 46171  53.0580 305.6201 0002067  81.2349 278.8874 15.06404290210605
STARLINK-1635           
1 46172U 20057BH  24156.42099952  .00009772  00000+0  67359-3 0  9999
2 46172  53.0548 304.3573 0000879 115.8245 244.2834 15.06422304210649
STARLINK-1640           
1 46173U 20057BJ  24156.20169324  .00007515  00000+0  52271-3 0  9997
2 46173  53.0545 325.3446 0001347  86.8054 273.3089 15.06411693209074
STARLINK-1641           
1 46174U 20057BK  24156.20906445  .00005558  00000+0  39169-3 0  9997
2 46174  53.0546 325.3115 0001285  90.8553 269.2583 15.06401735209078
STARLINK-1734           
1 46325U 20062A   24156.22057914  .00001646  00000+0  12934-3 0  9996
2 46325  53.0568 340.2634 0001381  91.4810 268.6337 15.06407195208561
STARLINK-1654           
1 46326U 20062B   24156.35100353  .00005377  00000+0  37939-3 0  9994
2 46326  53.0560  24.9161 0002274  76.4156 283.7087 15.06421601207346
STARLINK-1673           
1 46327U 20062C   24156.37260756  .00036501  00000+0  24397-2 0  9997
2 46327  53.0554  24.5740 0001329 102.9639 257.1499 15.06658024207343
STARLINK-1686           
1 46328U 20062D   24156.28645938  .00003848  00000+0  27703-3 0  9990
2 46328  53.0555   4.9627 0000882  86.0831 274.0258 15.06406976207618
STARLINK-1695           
1 46329U 20062E   24156.31964261  .00010704  00000+0  73591-3 0  9993
2 46329  53.0566   4.8132 0001272 102.0895 258.0237 15.06423860207614
STARLINK-1710           
1 46330U 20062F   24156.30858121  .00016201  00000+0  11032-2 0  9990
2 46330  53.0552   4.8652 0000451  90.2873 269.8167 15.06427676207622
STARLINK-1719           
1 46331U 20062G   24156.34360435  .00010111  00000+0  69654-3 0  9999
2 46331  53.0578  24.7076 0001789  82.9784 277.1409 15.06407435207347
STARLINK-1721           
1 46332U 20062H   24155.89955283  .00041799  00000+0  10083-2 0  9997
2 46332  53.0348 329.6874 0005280 155.8684 204.2568 15.40816076208087
STARLINK-1723           
1 46333U 20062J   24156.36939568  .00007010  00000+0  48874-3 0  9997
2 46333  53.0579  24.5883 0000554 152.0839 208.0180 15.06421917207343
STARLINK-1725           
1 46334U 20062K   24156.30493612  .00005651  00000+0  39791-3 0  9994
2 46334  53.0559   5.1597 0000761  86.3225 273.7851 15.06402736207619
STARLINK-1727           
1 46335U 20062L   24156.33254469  .00010530  00000+0  72443-3 0  9996
2 46335  53.0564  24.7576 0000771  90.8236 269.2842 15.06415000207341
STARLINK-1738           
1 46336U 20062M   24155.85890469  .00011623  00000+0  79749-3 0  9999
2 46336  53.0546   6.8836 0001447  92.4454 267.6701 15.06419395207542
STARLINK-1750           
1 46337U 20062N   24156.27173199  .00012627  00000+0  86473-3 0  9998
2 46337  53.0516   5.0269 0001120  63.0908 297.0195 15.06413536207610
STARLINK-1752           
1 46338U 20062P   24155.92341383  .00019773  00000+0  13423-2 0  9995
2 46338  53.0556  26.5941 0001104  72.6763 287.4346 15.06408763207456
STARLINK-1759           
1 46340U 20062R   24156.32521564  .00009123  00000+0  63039-3 0  9991
2 46340  53.0540  25.1047 0001150  55.7254 304.3844 15.06410088207323
STARLINK-1760           
1 46341U 20062S   24156.30122068  .00013002  00000+0  88999-3 0  9999
2 46341  53.0562   4.8993 0001244  79.3424 280.7705 15.06405961207627
STARLINK-1762           
1 46342U 20062T   24156.34728859  .00008655  00000+0  59917-3 0  9990
2 46342  53.0555  24.6894 0001339  79.2500 280.8640 15.06403306207348
STARLINK-1764           
1 46343U 20062U   24156.27540989  .00005235  00000+0  37000-3 0  9999
2 46343  53.0582   5.0135 0000944  94.9628 265.1469 15.06407069207611
STARLINK-1765           
1 46344U 20062V   24156.29383530  .00001135  00000+0  95050-4 0  9994
2 46344  53.0562   4.9302 0001231  88.5448 271.5682 15.06406296207612
STARLINK-1767           
1 46345U 20062W   24156.36204143  .00011101  00000+0  76297-3 0  9990
2 46345  53.0555  24.6260 0001323  75.1762 284.9373 15.06399328207342
STARLINK-1547           
1 46347U 20062Y   24156.51914552  .00009663  00000+0  66638-3 0  9999
2 46347  53.0544 338.9192 0001384  93.2153 266.8995 15.06420249207985
STARLINK-1553           
1 46348U 20062Z   24155.96580237  .00008315  00000+0  57620-3 0  9991
2 46348  53.0569   6.4047 0001698  89.4671 270.6512 15.06415072207569
STARLINK-1575           
1 46349U 20062AA  24155.89622233  .00002849  00000+0  21013-3 0  9990
2 46349  53.0547 341.7166 0001411  86.5910 273.5241 15.06395644208081
STARLINK-1617           
1 46350U 20062AB  24156.48600374  .00780631  29701-3  14003-2 0  9995
2 46350  53.0406 337.8529 0013821 275.0727  84.8725 16.00952192208010
STARLINK-1646           
1 46351U 20062AC  24155.99895989  .00014752  00000+0  10067-2 0  9996
2 46351  53.0552   6.2552 0001230 100.4321 259.6806 15.06417931207583
STARLINK-1653           
1 46352U 20062AD  24156.31226581  .00007526  00000+0  52351-3 0  9994
2 46352  53.0547   4.8480 0000795 116.1203 243.9868 15.06407347207629
STARLINK-1656           
1 46353U 20062AE  24156.04504120  .00014284  00000+0  97559-3 0  9991
2 46353  53.0562  26.0470 0001379  81.4505 278.6640 15.06411843207292
STARLINK-1657           
1 46354U 20062AF  24156.36572044  .00015040  00000+0  10262-2 0  9993
2 46354  53.0563  24.6094 0000990  74.8070 285.3029 15.06408619207340
STARLINK-1661           
1 46355U 20062AG  24156.33991612  .00011124  00000+0  76427-3 0  9992
2 46355  53.0560  24.7221 0000872  77.6411 282.4675 15.06412261207343
STARLINK-1665           
1 46356U 20062AH  24156.35467254  .00010175  00000+0  70107-3 0  9999
2 46356  53.0547  24.6964 0001493  83.7702 276.3457 15.06395889207349
STARLINK-1666           
1 46357U 20062AJ  24156.28278537  .00005660  00000+0  39859-3 0  9998
2 46357  53.0535   4.9798 0001338  84.8836 275.2306 15.06396470207619
STARLINK-1690           
1 46358U 20062AK  24156.32885789  .00008943  00000+0  61836-3 0  9994
2 46358  53.0548  24.7748 0001136  95.9405 264.1714 15.06407180207341
STARLINK-1707           
1 46359U 20062AL  24156.24269869  .00003131  00000+0  22896-3 0  9998
2 46359  53.0522 340.1590 0002075  91.7482 268.3745 15.06403657207958
STARLINK-1713           
1 46360U 20062AM  24156.53019987  .00007043  00000+0  49107-3 0  9996
2 46360  53.0570 338.8705 0001214  93.6805 266.4322 15.06414631208000
STARLINK-1722           
1 46361U 20062AN  24156.49977034  .00011928  00000+0  81782-3 0  9990
2 46361  53.0564 338.9977 0001149  88.8832 271.2288 15.06422685207999
STARLINK-1726           
1 46362U 20062AP  24156.21321016  .00001489  00000+0  11883-3 0  9990
2 46362  53.0569 340.2908 0001885  78.7605 281.3596 15.06398870207956
STARLINK-1739           
1 46363U 20062AQ  24156.47027833  .00004648  00000+0  33064-3 0  9994
2 46363  53.0562 339.1297 0001598  94.2600 265.8572 15.06407566207995
STARLINK-1763           
1 46364U 20062AR  24155.87601662  .00004679  00000+0  33278-3 0  9997
2 46364  53.0550 322.3152 0001222  87.4058 272.7070 15.06401786208171
STARLINK-1651           
1 46366U 20062AT  24156.23902481  .00015801  00000+0  10766-2 0  9998
2 46366  53.0562 340.1772 0000856 102.4828 257.6257 15.06423507207956
STARLINK-1658           
1 46368U 20062AV  24155.27191783  .00130000  00000+0  11339-2 0  9994
2 46368  53.0542 354.2101 0004532 261.2800  98.7702 15.68084627207680
STARLINK-1670           
1 46370U 20062AX  24155.00747148 -.00001704  00000+0 -95612-4 0  9998
2 46370  53.0560  10.7052 0001429  93.3352 266.7800 15.06379364207425
STARLINK-1688           
1 46371U 20062AY  24156.00001157  .00201738  00000+0  16014-2 0  9997
2 46371  53.0494 349.7125 0005486 272.2254 218.2683 15.70119301  5964
STARLINK-1689           
1 46372U 20062AZ  24156.33621519  .00002340  00000+0  17587-3 0  9999
2 46372  53.0559  24.7393 0002177  78.5536 281.5698 15.06412007207341
STARLINK-1711           
1 46374U 20062BB  24156.41640214 -.00001603  00000+0 -88760-4 0  9998
2 46374  53.0544 314.3821 0001645  96.1940 263.9236 15.06387020208333
STARLINK-1724           
1 46375U 20062BC  24156.49702942  .00001839  00000+0  14229-3 0  9991
2 46375  53.0593 339.0192 0001175  95.8669 264.2454 15.06404931207993
STARLINK-1742           
1 46376U 20062BD  24156.51177237  .00007337  00000+0  51078-3 0  9990
2 46376  53.0568 338.9520 0001205  93.6057 266.5070 15.06410251207991
STARLINK-1758           
1 46380U 20062BH  24156.54449728  .00003452  00000+0  25049-3 0  9998
2 46380  53.0557   3.8053 0001536  86.4727 273.6438 15.06406120207654
STARLINK-1769           
1 46382U 20062BK  24155.92940031  .00005631  00000+0  39656-3 0  9994
2 46382  53.0552 341.5676 0001130  89.8793 270.2325 15.06402733207917
STARLINK-1770           
1 46383U 20062BL  24155.91603103  .00003704  00000+0  26738-3 0  9996
2 46383  53.0544  26.6276 0001133  81.8992 278.2126 15.06402633207457
STARLINK-1771           
1 46384U 20062BM  24156.11875779  .00008560  00000+0  59248-3 0  9997
2 46384  53.0562  25.7176 0001468  90.4875 269.6282 15.06422593207302
STARLINK-1644           
1 46532U 20070A   24156.51684166  .00002486  00000+0  18567-3 0  9993
2 46532  53.0532 183.9298 0001235  90.5076 269.6054 15.06413410202560
STARLINK-1648           
1 46533U 20070B   24156.46155885  .00003298  00000+0  24011-3 0  9992
2 46533  53.0531 184.1766 0000912  73.9971 286.1118 15.06408131202551
